STARLINK-2022           
1 47643U 21012Z   23329.04677382 -.00000873  00000+0 -39718-4 0  9997
2 47643  53.0538 202.9693 0001283  87.1247 272.9888 15.06386311154316
